{"type": "FeatureCollection", "features": [ {"type": "Feature", "properties": {"norad_id": 35890, "name": "COSMOS 2251 DEB", "group": "cosmos-2251-debris", "lat": -45.28310121762538, "lon": 65.44061759695596, "alt_km": 728.6275406058458, "timestamp": "2025-12-20T03:42:47.791113+00:00", "meta": {"OBJECT_NAME": "COSMOS 2251 DEB", "OBJECT_ID": "1993-036AUD", "EPOCH": "2025-12-16T22:53:46.078656", "MEAN_MOTION": 14.57543512, "ECCENTRICITY": 0.00539437, "INCLINATION": 73.9365, "RA_OF_ASC_NODE": 234.6414, "ARG_OF_PERICENTER": 358.5125, "MEAN_ANOMALY": 1.5869, "EPHEMERIS_TYPE": 0, "CLASSIFICATION_TYPE": "U", "NORAD_CAT_ID": 35890, "ELEMENT_SET_NO": 999, "REV_AT_EPOCH": 65212, "BSTAR": 0.0012168345, "MEAN_MOTION_DOT": 5.621e-05, "MEAN_MOTION_DDOT": 0}, "tle": {"line1": "1 35890U 93036AUD 25350.95400554  .00005621  00000+0  12168-2 0  9996", "line2": "2 35890  73.9365 234.6414 0053943 358.5125   1.5869 14.57543512652129"}}, "geometry": {"type": "Point", "coordinates": [65.44061759695596, -45.28310121762538]}}, {"type": "Feature", "properties": {"norad_id": 35891, "name": "COSMOS 2251 DEB", "group": "cosmos-2251-debris", "lat": -5.8727455332779455, "lon": 76.2675963489689, "alt_km": 491.8471126721288, "timestamp": "2025-12-20T03:42:47.791123+00:00", "meta": {"OBJECT_NAME": "COSMOS 2251 DEB", "OBJECT_ID": "1993-036AUE", "EPOCH": "2025-12-19T12:05:11.942880", "MEAN_MOTION": 15.33870826, "ECCENTRICITY": 0.0042443, "INCLINATION": 73.9911, "RA_OF_ASC_NODE": 79.3572, "ARG_OF_PERICENTER": 208.8612, "MEAN_ANOMALY": 151.0246, "EPHEMERIS_TYPE": 0, "CLASSIFICATION_TYPE": "U", "NORAD_CAT_ID": 35891, "ELEMENT_SET_NO": 999, "REV_AT_EPOCH": 67324, "BSTAR": 0.00090918, "MEAN_MOTION_DOT": 0.00030745, "MEAN_MOTION_DDOT": 0}, "tle": {"line1": "1 35891U 93036AUE 25353.50361045  .00030745  00000+0  90918-3 0  9997", "line2": "2 35891  73.9911  79.3572 0042443 208.8612 151.0246 15.33870826673249"}}, "geometry": {"type": "Point", "coordinates": [76.2675963489689, -5.8727455332779455]}}, {"type": "Feature", "properties": {"norad_id": 35895, "name": "COSMOS 2251 DEB", "group": "cosmos-2251-debris", "lat": 24.46450363814118, "lon": -17.715312884196546, "alt_km": 785.0786348669808, "timestamp": "2025-12-20T03:42:47.791133+00:00", "meta": {"OBJECT_NAME": "COSMOS 2251 DEB", "OBJECT_ID": "1993-036AUJ", "EPOCH": "2025-12-11T07:10:31.732032", "MEAN_MOTION": 14.01513994, "ECCENTRICITY": 0.01987879, "INCLINATION": 74.0502, "RA_OF_ASC_NODE": 350.1634, "ARG_OF_PERICENTER": 88.7843, "MEAN_ANOMALY": 273.6056, "EPHEMERIS_TYPE": 0, "CLASSIFICATION_TYPE": "U", "NORAD_CAT_ID": 35895, "ELEMENT_SET_NO": 999, "REV_AT_EPOCH": 58992, "BSTAR": 0.0020881347, "MEAN_MOTION_DOT": 3.73e-05, "MEAN_MOTION_DDOT": 0}, "tle": {"line1": "1 35895U 93036AUJ 25345.29897838  .00003730  00000+0  20881-2 0  9997", "line2": "2 35895  74.0502 350.1634 0198787  88.7843 273.6056 14.01513994589929"}}, "geometry": {"type": "Point", "coordinates": [-17.715312884196546, 24.46450363814118]}}, {"type": "Feature", "properties": {"norad_id": 35898, "name": "COSMOS 2251 DEB", "group": "cosmos-2251-debris", "lat": -36.77050837324205, "lon": 114.85479979115438, "alt_km": 638.616019655451, "timestamp": "2025-12-20T03:42:47.791143+00:00", "meta": {"OBJECT_NAME": "COSMOS 2251 DEB", "OBJECT_ID": "1993-036AUM", "EPOCH": "2025-12-17T02:32:30.687072", "MEAN_MOTION": 14.94779467, "ECCENTRICITY": 0.00792454, "INCLINATION": 73.9918, "RA_OF_ASC_NODE": 288.6268, "ARG_OF_PERICENTER": 70.8936, "MEAN_ANOMALY": 307.548, "EPHEMERIS_TYPE": 0, "CLASSIFICATION_TYPE": "U", "NORAD_CAT_ID": 35898, "ELEMENT_SET_NO": 999, "REV_AT_EPOCH": 66875, "BSTAR": 0.00065982938, "MEAN_MOTION_DOT": 7.606e-05, "MEAN_MOTION_DDOT": 0}, "tle": {"line1": "1 35898U 93036AUM 25351.10591073  .00007606  00000+0  65983-3 0  9998", "line2": "2 35898  73.9918 288.6268 0079245  70.8936 307.5480 14.94779467668759"}}, "geometry": {"type": "Point", "coordinates": [114.85479979115438, -36.77050837324205]}}, {"type": "Feature", "properties": {"norad_id": 35901, "name": "COSMOS 2251 DEB", "group": "cosmos-2251-debris", "lat": -17.533190231493673, "lon": -167.20123434383288, "alt_km": 552.0637365466137, "timestamp": "2025-12-20T03:42:47.791153+00:00", "meta": {"OBJECT_NAME": "COSMOS 2251 DEB", "OBJECT_ID": "1993-036AUQ", "EPOCH": "2025-12-19T17:49:19.152192", "MEAN_MOTION": 15.07669326, "ECCENTRICITY": 0.00076, "INCLINATION": 74.0118, "RA_OF_ASC_NODE": 8.45, "ARG_OF_PERICENTER": 341.4047, "MEAN_ANOMALY": 140.8149, "EPHEMERIS_TYPE": 0, "CLASSIFICATION_TYPE": "U", "NORAD_CAT_ID": 35901, "ELEMENT_SET_NO": 999, "REV_AT_EPOCH": 86232, "BSTAR": 0.0021961, "MEAN_MOTION_DOT": 0.00033635, "MEAN_MOTION_DDOT": 0}, "tle": {"line1": "1 35901U 93036AUQ 25353.74258278  .00033635  00000+0  21961-2 0  9990", "line2": "2 35901  74.0118   8.4500 0007600 341.4047 140.8149 15.07669326862327"}}, "geometry": {"type": "Point", "coordinates": [-167.20123434383288, -17.533190231493673]}}, {"type": "Feature", "properties": {"norad_id": 35902, "name": "COSMOS 2251 DEB", "group": "cosmos-2251-debris", "lat": 39.182725931115094, "lon": 27.581993303765913, "alt_km": 869.2959540830343, "timestamp": "2025-12-20T03:42:47.791163+00:00", "meta": {"OBJECT_NAME": "COSMOS 2251 DEB", "OBJECT_ID": "1993-036AUR", "EPOCH": "2025-12-19T15:17:09.843072", "MEAN_MOTION": 14.26937143, "ECCENTRICITY": 0.0102282, "INCLINATION": 73.9823, "RA_OF_ASC_NODE": 222.0626, "ARG_OF_PERICENTER": 335.5486, "MEAN_ANOMALY": 24.0827, "EPHEMERIS_TYPE": 0, "CLASSIFICATION_TYPE": "U", "NORAD_CAT_ID": 35902, "ELEMENT_SET_NO": 999, "REV_AT_EPOCH": 61228, "BSTAR": 0.00057286, "MEAN_MOTION_DOT": 1.445e-05, "MEAN_MOTION_DDOT": 0}, "tle": {"line1": "1 35902U 93036AUR 25353.63691948  .00001445  00000+0  57286-3 0  9998", "line2": "2 35902  73.9823 222.0626 0102282 335.5486  24.0827 14.26937143612284"}}, "geometry": {"type": "Point", "coordinates": [27.581993303765913, 39.182725931115094]}}, {"type": "Feature", "properties": {"norad_id": 35905, "name": "COSMOS 2251 DEB", "group": "cosmos-2251-debris", "lat": -33.03713188542302, "lon": 26.491344073574073, "alt_km": 543.1764480401571, "timestamp": "2025-12-20T03:42:47.791173+00:00", "meta": {"OBJECT_NAME": "COSMOS 2251 DEB", "OBJECT_ID": "1993-036AUU", "EPOCH": "2025-12-19T20:20:40.701120", "MEAN_MOTION": 14.99109626, "ECCENTRICITY": 0.0090723, "INCLINATION": 74.0303, "RA_OF_ASC_NODE": 196.3814, "ARG_OF_PERICENTER": 274.7905, "MEAN_ANOMALY": 84.2926, "EPHEMERIS_TYPE": 0, "CLASSIFICATION_TYPE": "U", "NORAD_CAT_ID": 35905, "ELEMENT_SET_NO": 999, "REV_AT_EPOCH": 88689, "BSTAR": 0.00038535, "MEAN_MOTION_DOT": 5.062e-05, "MEAN_MOTION_DDOT": 0}, "tle": {"line1": "1 35905U 93036AUU 25353.84769330  .00005062  00000+0  38535-3 0  9990", "line2": "2 35905  74.0303 196.3814 0090723 274.7905  84.2926 14.99109626886895"}}, "geometry": {"type": "Point", "coordinates": [26.491344073574073, -33.03713188542302]}}, {"type": "Feature", "properties": {"norad_id": 35959, "name": "COSMOS 2251 DEB", "group": "cosmos-2251-debris", "lat": 52.518520655798156, "lon": -39.58523187380783, "alt_km": 760.4808694452859, "timestamp": "2025-12-20T03:42:47.791183+00:00", "meta": {"OBJECT_NAME": "COSMOS 2251 DEB", "OBJECT_ID": "1993-036AUZ", "EPOCH": "2025-12-18T02:54:20.383200", "MEAN_MOTION": 14.34139826, "ECCENTRICITY": 0.00217869, "INCLINATION": 74.0326, "RA_OF_ASC_NODE": 302.2118, "ARG_OF_PERICENTER": 21.1868, "MEAN_ANOMALY": 339.0181, "EPHEMERIS_TYPE": 0, "CLASSIFICATION_TYPE": "U", "NORAD_CAT_ID": 35959, "ELEMENT_SET_NO": 999, "REV_AT_EPOCH": 85005, "BSTAR": 0.00010326625, "MEAN_MOTION_DOT": 2.64e-06, "MEAN_MOTION_DDOT": 0}, "tle": {"line1": "1 35959U 93036AUZ 25352.12106925  .00000264  00000+0  10327-3 0  9992", "line2": "2 35959  74.0326 302.2118 0021786  21.1868 339.0181 14.34139826850056"}}, "geometry": {"type": "Point", "coordinates": [-39.58523187380783, 52.518520655798156]}}, {"type": "Feature", "properties": {"norad_id": 35961, "name": "COSMOS 2251 DEB", "group": "cosmos-2251-debris", "lat": -55.63667796302544, "lon": 166.19513177674344, "alt_km": 1020.5840547550952, "timestamp": "2025-12-20T03:42:47.791193+00:00", "meta": {"OBJECT_NAME": "COSMOS 2251 DEB", "OBJECT_ID": "1993-036AVB", "EPOCH": "2025-12-18T21:15:12.372768", "MEAN_MOTION": 14.05418101, "ECCENTRICITY": 0.01915239, "INCLINATION": 73.9239, "RA_OF_ASC_NODE": 193.3704, "ARG_OF_PERICENTER": 125.5075, "MEAN_ANOMALY": 236.4097, "EPHEMERIS_TYPE": 0, "CLASSIFICATION_TYPE": "U", "NORAD_CAT_ID": 35961, "ELEMENT_SET_NO": 999, "REV_AT_EPOCH": 62768, "BSTAR": 0.0011788636, "MEAN_MOTION_DOT": 2.232e-05, "MEAN_MOTION_DDOT": 0}, "tle": {"line1": "1 35961U 93036AVB 25352.88555987  .00002232  00000+0  11789-2 0  9993", "line2": "2 35961  73.9239 193.3704 0191523 125.5075 236.4097 14.05418101627687"}}, "geometry": {"type": "Point", "coordinates": [166.19513177674344, -55.63667796302544]}}, {"type": "Feature", "properties": {"norad_id": 35979, "name": "COSMOS 2251 DEB", "group": "cosmos-2251-debris", "lat": -53.201391176938024, "lon": 66.41881366976446, "alt_km": 671.9430831955824, "timestamp": "2025-12-20T03:42:47.791203+00:00", "meta": {"OBJECT_NAME": "COSMOS 2251 DEB", "OBJECT_ID": "1993-036AVV", "EPOCH": "2025-12-17T22:37:43.321728", "MEAN_MOTION": 14.74704209, "ECCENTRICITY": 0.00591052, "INCLINATION": 74.0093, "RA_OF_ASC_NODE": 228.2039, "ARG_OF_PERICENTER": 359.1807, "MEAN_ANOMALY": 19.9586, "EPHEMERIS_TYPE": 0, "CLASSIFICATION_TYPE": "U", "NORAD_CAT_ID": 35979, "ELEMENT_SET_NO": 999, "REV_AT_EPOCH": 88710, "BSTAR": 0.00063181032, "MEAN_MOTION_DOT": 4.31e-05, "MEAN_MOTION_DDOT": 0}, "tle": {"line1": "1 35979U 93036AVV 25351.94286252  .00004310  00000+0  63181-3 0  9997", "line2": "2 35979  74.0093 228.2039 0059105 359.1807  19.9586 14.74704209887107"}}, "geometry": {"type": "Point", "coordinates": [66.41881366976446, -53.201391176938024]}}]}